NORAD_CAT_ID,OBJECT_NAME,OBJECT_TYPE,EPOCH,MEAN_MOTION,ECCENTRICITY,INCLINATION,RA_OF_ASC_NODE,ARG_OF_PERICENTER,MEAN_ANOMALY,BSTAR,MEAN_MOTION_DOT,MEAN_MOTION_DDOT,TLE_LINE0,TLE_LINE1,TLE_LINE2,SEMIMAJOR_AXIS,PERIOD,APOGEE,PERIGEE,DECAYED
53530.0,STARLINK-4482,PAYLOAD,2024-06-09 03:59:37,15.08845462,0.0001209,53.218,60.7842,94.7791,265.3339,5.6335e-05,6.09e-06,0.0,0 STARLINK-4482,1 53530U 22101D   24161.16640078  .00000609  00000-0  56335-4 0  9999,2 53530  53.2180  60.7842 0001209  94.7791 265.3339 15.08845462 99768,6917.864,95.437,540.565,538.892,0.0
53530.0,STARLINK-4482,PAYLOAD,2024-06-09 23:04:15,15.08844347,0.0001357,53.2177,57.2157,90.4778,269.637,-2.1116e-06,-3.22e-06,0.0,0 STARLINK-4482,1 53530U 22101D   24161.96128791 -.00000322  00000-0 -21116-5 0  9994,2 53530  53.2177  57.2157 0001357  90.4778 269.6370 15.08844347 99882,6917.867,95.437,540.671,538.793,0.0
53530.0,STARLINK-4482,PAYLOAD,2024-06-10 02:15:01,15.08839457,0.0001382,53.2184,56.6194,82.7969,277.3181,0.00026902,3.996e-05,0.0,0 STARLINK-4482,1 53530U 22101D   24162.09376411  .00003996  00000-0  26902-3 0  9997,2 53530  53.2184  56.6194 0001382  82.7969 277.3181 15.08839457 99903,6917.882,95.438,540.703,538.791,0.0
53530.0,STARLINK-4482,PAYLOAD,2024-06-10 10:11:57,15.08843957,0.0001516,53.2179,55.1339,87.2203,272.8963,-8.7309e-05,-1.677e-05,0.0,0 STARLINK-4482,1 53530U 22101D   24162.42496880 -.00001677  00000-0 -87309-4 0  9992,2 53530  53.2179  55.1339 0001516  87.2203 272.8963 15.08843957 99955,6917.868,95.437,540.782,538.685,0.0
53530.0,STARLINK-4482,PAYLOAD,2024-06-10 21:19:39,15.08835495,0.0001611,53.2191,53.0498,83.7464,276.3712,0.00013652,1.885e-05,0.0,0 STARLINK-4482,1 53530U 22101D   24162.88865125  .00001885  00000-0  13652-3 0  9992,2 53530  53.2191  53.0498 0001611  83.7464 276.3712 15.08835495100028,6917.894,95.438,540.874,538.645,0.0
53530.0,STARLINK-4482,PAYLOAD,2024-06-10 22:55:02,15.08832572,0.0001272,53.2185,52.7552,82.1205,277.9931,0.00010693,1.414e-05,0.0,0 STARLINK-4482,1 53530U 22101D   24162.95489400  .00001414  00000-0  10693-3 0  9998,2 53530  53.2185  52.7552 0001272  82.1205 277.9931 15.08832572100031,6917.903,95.438,540.648,538.888,0.0
53530.0,STARLINK-4482,PAYLOAD,2024-06-11 10:02:45,15.08825824,0.0001391,53.2186,50.6732,82.4485,277.6665,-3.0865e-05,-7.79e-06,0.0,0 STARLINK-4482,1 53530U 22101D   24163.41858474 -.00000779  00000-0 -30865-4 0  9990,2 53530  53.2186  50.6732 0001391  82.4485 277.6665 15.08825824100105,6917.924,95.438,540.751,538.826,0.0
53530.0,STARLINK-4482,PAYLOAD,2024-06-12 01:56:36,15.08848585,0.0001336,53.2186,47.7011,91.0834,269.0311,5.8806e-05,6.48e-06,0.0,0 STARLINK-4482,1 53530U 22101D   24164.08097618  .00000648  00000-0  58806-4 0  9997,2 53530  53.2186  47.7011 0001336  91.0834 269.0311 15.08848585100208,6917.854,95.437,540.643,538.795,0.0
53530.0,STARLINK-4482,PAYLOAD,2024-06-12 22:36:36,15.08861279,0.0001329,53.2183,43.8351,86.2588,273.8556,0.00018907,2.724e-05,0.0,0 STARLINK-4482,1 53530U 22101D   24164.94208406  .00002724  00000-0  18907-3 0  9995,2 53530  53.2183  43.8351 0001329  86.2588 273.8556 15.08861279100336,6917.815,95.436,540.6,538.761,0.0
53530.0,STARLINK-4482,PAYLOAD,2024-06-13 01:47:22,15.08864253,0.0001366,53.2186,43.2393,90.8648,269.25,0.00021689,3.168e-05,0.0,0 STARLINK-4482,1 53530U 22101D   24165.07456054  .00003168  00000-0  21689-3 0  9998,2 53530  53.2186  43.2393 0001366  90.8648 269.2500 15.08864253100353,6917.806,95.436,540.616,538.726,0.0
53530.0,STARLINK-4482,PAYLOAD,2024-06-13 22:27:25,15.0880297,0.0001915,53.2192,39.3653,123.5329,236.5846,0.00068922,0.00010687,0.0,0 STARLINK-4482,1 53530U 22101D   24165.93570675  .00010687  00000-0  68922-3 0  9994,2 53530  53.2192  39.3653 0001915 123.5329 236.5846 15.08802970100487,6917.994,95.44,541.183,538.534,0.0
53530.0,STARLINK-4482,PAYLOAD,2024-06-14 07:59:43,15.08846554,0.000129,53.2184,37.5902,95.3464,264.7675,3.2819e-05,2.35e-06,0.0,0 STARLINK-4482,1 53530U 22101D   24166.33313796  .00000235  00000-0  32819-4 0  9993,2 53530  53.2184  37.5902 0001290  95.3464 264.7675 15.08846554100543,6917.86,95.437,540.618,538.833,0.0
53530.0,STARLINK-4482,PAYLOAD,2024-06-14 22:18:11,15.08850201,0.0001372,53.219,34.9145,108.7454,251.3687,-0.00011991,-2.196e-05,0.0,0 STARLINK-4482,1 53530U 22101D   24166.92929589 -.00002196  00000-0 -11991-3 0  9998,2 53530  53.2190  34.9145 0001372 108.7454 251.3687 15.08850201100638,6917.849,95.437,540.663,538.765,0.0
53530.0,STARLINK-4482,PAYLOAD,2024-06-15 07:50:29,15.08851619,0.0001394,53.2192,33.1312,116.9323,243.1812,-2.241e-05,-6.45e-06,0.0,0 STARLINK-4482,1 53530U 22101D   24167.32672989 -.00000645  00000-0 -22410-4 0  9998,2 53530  53.2192  33.1312 0001394 116.9323 243.1812 15.08851619100696,6917.845,95.437,540.674,538.746,0.0
53530.0,STARLINK-4482,PAYLOAD,2024-06-15 20:33:34,15.08841876,0.0001423,53.2191,30.7528,108.8165,251.2982,9.8124e-05,1.274e-05,0.0,0 STARLINK-4482,1 53530U 22101D   24167.85665401  .00001274  00000-0  98124-4 0  9999,2 53530  53.2191  30.7528 0001423 108.8165 251.2982 15.08841876100775,6917.875,95.437,540.724,538.755,0.0
53530.0,STARLINK-4482,PAYLOAD,2024-06-16 07:41:16,15.08848598,0.0001251,53.2196,28.6731,95.7498,264.3637,9.7423e-05,1.263e-05,0.0,0 STARLINK-4482,1 53530U 22101D   24168.32032970  .00001263  00000-0  97423-4 0  9990,2 53530  53.2196  28.6731 0001251  95.7498 264.3637 15.08848598100842,6917.854,95.437,540.585,538.854,0.0
53530.0,STARLINK-4482,PAYLOAD,2024-06-16 21:59:44,15.08846864,0.0001154,53.2182,25.9915,100.2754,259.8368,0.00012151,1.647e-05,0.0,0 STARLINK-4482,1 53530U 22101D   24168.91649080  .00001647  00000-0  12151-3 0  9991,2 53530  53.2182  25.9915 0001154 100.2754 259.8368 15.08846864100934,6917.859,95.437,540.523,538.926,0.0
53530.0,STARLINK-4482,PAYLOAD,2024-06-17 21:50:32,15.08846341,0.0001126,53.2182,21.5335,85.4297,274.6824,5.4439e-05,5.79e-06,0.0,0 STARLINK-4482,1 53530U 22101D   24169.91009270  .00000579  00000-0  54439-4 0  9992,2 53530  53.2182  21.5335 0001126  85.4297 274.6824 15.08846341101086,6917.861,95.437,540.505,538.947,0.0
53530.0,STARLINK-4482,PAYLOAD,2024-06-17 23:25:54,15.08848932,0.0001137,53.2183,21.2355,84.527,275.5851,8.1469e-05,1.009e-05,0.0,0 STARLINK-4482,1 53530U 22101D   24169.97633046  .00001009  00000-0  81469-4 0  9994,2 53530  53.2183  21.2355 0001137  84.5270 275.5851 15.08848932101098,6917.853,95.437,540.505,538.932,0.0
53530.0,STARLINK-4482,PAYLOAD,2024-06-18 07:22:50,15.08845605,0.0001199,53.2184,19.7483,83.7759,276.337,5.7725e-05,6.31e-06,0.0,0 STARLINK-4482,1 53530U 22101D   24170.30753257  .00000631  00000-0  57725-4 0  9998,2 53530  53.2184  19.7483 0001199  83.7759 276.3370 15.08845605101149,6917.863,95.437,540.558,538.899,0.0
53530.0,STARLINK-4482,PAYLOAD,2024-06-18 20:05:55,15.08851325,0.0001523,53.2181,17.3681,142.7057,217.4041,6.2017e-05,6.99e-06,0.0,0 STARLINK-4482,1 53530U 22101D   24170.83744619  .00000699  00000-0  62017-4 0  9992,2 53530  53.2181  17.3681 0001523 142.7057 217.4041 15.08851325101224,6917.846,95.437,540.764,538.657,0.0
53530.0,STARLINK-4482,PAYLOAD,2024-06-19 07:13:37,15.08847706,0.0001118,53.2179,15.2881,88.479,271.633,4.3647e-05,4.07e-06,0.0,0 STARLINK-4482,1 53530U 22101D   24171.30112936  .00000407  00000-0  43647-4 0  9991,2 53530  53.2179  15.2881 0001118  88.4790 271.6330 15.08847706101298,6917.857,95.437,540.495,538.948,0.0
53530.0,STARLINK-4482,PAYLOAD,2024-06-19 13:35:10,15.08833362,0.0001294,53.2182,14.0993,98.5199,261.5939,0.00011189,1.493e-05,0.0,0 STARLINK-4482,1 53530U 22101D   24171.56609853  .00001493  00000-0  11189-3 0  9999,2 53530  53.2182  14.0993 0001294  98.5199 261.5939 15.08833362101334,6917.901,95.438,540.661,538.871,0.0
53530.0,STARLINK-4482,PAYLOAD,2024-06-19 19:56:43,15.08842264,0.0001265,53.2182,12.9102,97.4082,262.7054,1.4011e-05,-6.5e-07,0.0,0 STARLINK-4482,1 53530U 22101D   24171.83105469 -.00000065  00000-0  14011-4 0  9996,2 53530  53.2182  12.9102 0001265  97.4082 262.7054 15.08842264101376,6917.873,95.437,540.614,538.863,0.0
53530.0,STARLINK-4482,PAYLOAD,2024-06-20 13:25:58,15.08822604,0.000136,53.2181,9.6405,96.1873,263.9274,0.00027724,4.125e-05,0.0,0 STARLINK-4482,1 53530U 22101D   24172.55970177  .00004125  00000-0  27724-3 0  9996,2 53530  53.2181   9.6405 0001360  96.1873 263.9274 15.08822604101489,6917.934,95.439,540.739,538.858,0.0
53530.0,STARLINK-4482,PAYLOAD,2024-06-20 18:12:07,15.08828005,0.0001301,53.2184,8.7485,94.7688,265.3453,0.00020171,2.923e-05,0.0,0 STARLINK-4482,1 53530U 22101D   24172.75842026  .00002923  00000-0  20171-3 0  9992,2 53530  53.2184   8.7485 0001301  94.7688 265.3453 15.08828005101513,6917.917,95.438,540.682,538.882,0.0
53530.0,STARLINK-4482,PAYLOAD,2024-06-21 13:16:44,15.08835674,0.0001271,53.2188,5.1806,93.9501,266.1636,7.3812e-05,8.87e-06,0.0,0 STARLINK-4482,1 53530U 22101D   24173.55329857  .00000887  00000-0  73812-4 0  9991,2 53530  53.2188   5.1806 0001271  93.9501 266.1636 15.08835674101631,6917.894,95.438,540.638,538.879,0.0
53530.0,STARLINK-4482,PAYLOAD,2024-06-21 18:02:54,15.08836659,0.0001267,53.2187,4.2885,93.7466,266.3671,7.8188e-05,9.57e-06,0.0,0 STARLINK-4482,1 53530U 22101D   24173.75201827  .00000957  00000-0  78188-4 0  9998,2 53530  53.2187   4.2885 0001267  93.7466 266.3671 15.08836659101668,6917.891,95.438,540.632,538.879,0.0
53530.0,STARLINK-4482,PAYLOAD,2024-06-22 13:07:32,15.08836051,0.0001141,53.2177,0.7187,89.9436,270.1687,3.5092e-05,2.71e-06,0.0,0 STARLINK-4482,1 53530U 22101D   24174.54690215  .00000271  00000-0  35092-4 0  9995,2 53530  53.2177   0.7187 0001141  89.9436 270.1687 15.08836051101787,6917.892,95.438,540.547,538.968,0.0
53530.0,STARLINK-4482,PAYLOAD,2024-06-22 17:53:41,15.08837585,0.0001137,53.2181,359.827,89.6267,270.4855,4.4715e-05,4.24e-06,0.0,0 STARLINK-4482,1 53530U 22101D   24174.74562128  .00000424  00000-0  44715-4 0  9990,2 53530  53.2181 359.8270 0001137  89.6267 270.4855 15.08837585101814,6917.888,95.438,540.539,538.966,0.0
